    DH66G010  2024 10 28.980   0.40276   0.85213   175.688    93.542     8.716   20231103   9.0  4.0  D/1766 G1 (Helfenzrieder)                                 26  114
    DI84O010  2026 01  7.2648  1.322307  0.571247  339.8266  332.8947    9.3073  20231103   9.0  4.0  D/1884 O1 (Barnard)                                       89  256
    DI86K010  2025 06 18.3033  1.888307  0.468350  208.4403   39.1626   10.9262  20231103   9.0  4.0  D/1886 K1 (Brooks)                                        89  256
    DI94F010  2021 12 18.9470  1.171157  0.693863  198.4080  297.3386    1.4229  20231103   9.0  4.0  D/1894 F1 (Denning)                                      CCO     8
    DI95Q010  2025 09  5.4751  1.389306  0.626841  199.2581  135.7896   13.5234  20231103   9.0  4.0  D/1895 Q1 (Swift)                                         13  428
    DJ18W010  2024 09 11.0686  2.834184  0.317846  326.4435   75.9290    6.8224  20231103   9.0  4.0  D/1918 W1 (Schorr)                                       114  147
    DJ52B010  2022 07 24.0778  1.154504  0.625078    5.0009  116.4085   11.1704  20231103   9.0  4.0  D/1952 B1 (Harrington-Wilson)                            MPC  4601
    DJ77C010  2021 07 27.6948  2.798381  0.268800   25.2176   80.2888    3.1988  20231103   9.0  4.0  D/1977 C1 (Skiff-Kosai)                                  MPC 11152
    DJ78R010  2023 04 17.6421  1.280907  0.629371  307.1736   66.4917    4.9452  20231103   9.0  4.0  D/1978 R1 (Haneda-Campos)                                NK    779
    DJ93F02d  2023 11 13.2975  2.818277  0.332021  223.7474  160.7179   40.9104  20231103   9.0  4.0  D/1993 F2-D (Shoemaker-Levy)                             MPC 23764
    CJ95O010  1997 03 30.7909  0.887857  0.994988  130.1963  282.4277   89.4064  20231103  -2.0  4.0  C/1995 O1 (Hale-Bopp)                                    MPEC 2022-S20
    PJ96R020  2026 06 15.1243  2.586694  0.314600  333.4121   40.0588    2.6000  20231103  11.5  4.0  P/1996 R2 (Lagerkvist)                                   NK   1615
    PJ98V24S  2027 09  6.6393  3.421439  0.243601  244.6860  159.0755    5.0282  20231103  13.0  2.0  P/1998 VS24 (LINEAR)                                     MPC 75703
    PJ99R28O  2025 10 30.0816  1.122128  0.672476  231.3088  137.8827    7.5674  20231103  20.0  2.0  P/1999 RO28 (LONEOS)                                     NK    731
    PJ99XC0N  2025 12 22.4936  3.298459  0.210725  161.6792  285.2636    5.0299  20231103  13.5  2.0  P/1999 XN120 (Catalina)                                  MPC 75704
    PK00R020  2025 12  2.0780  1.626431  0.531044  176.5923  160.2948   11.6837  20231103  18.0  4.0  P/2000 R2 (LINEAR)                                       NK    744
    PK01H050  2030 10 27.4097  2.448728  0.598284  224.6901  328.6356    8.3681  20231103  12.0  4.0  P/2001 H5 (NEAT)                                         MPC 43019
    PK01Q060  2024 02 28.3138  1.405612  0.823649   42.9240   22.1937   56.9120  20231103  13.5  4.0  P/2001 Q6 (NEAT)                                         MPC 75704
    PK02E57J  2018 06 17.7861  2.629320  0.592927  167.2551  330.2734    4.9814  20231103  12.5  4.0  P/2002 EJ57 (LINEAR)                                     MPEC 2023-UR6
    PK02T060  2024 07 17.2536  3.387126  0.565335  219.2339  206.0418   10.8568  20231103  10.5  4.0  P/2002 T6 (NEAT-LINEAR)                                  MPEC 2023-UR9
    CK02V94Q  2006 02  3.5735  6.782279  0.963295   99.8744   35.1656   70.7136  20231103   9.5  2.0  C/2002 VQ94 (LINEAR)                                     MPC 75007
    PK03F020  2019 11 12.1811  2.981357  0.541392  192.2654  358.9777   11.6281  20231103  16.5  2.0  P/2003 F2 (NEAT)                                         MPC 50354
    PK03Q29X  2025 08  7.0677  4.228260  0.471993   37.6717  264.5381   11.3970  20231103   8.5  4.0  P/2003 QX29 (NEAT)                                       MPC 50139
    PK03T120  2024 07  3.7518  0.593755  0.770277  219.7710  174.5851   11.0251  20231103  17.0  4.0  P/2003 T12 (SOHO)                                        MPC105235
    PK04D29O  2024 06  3.1294  4.077454  0.441834   40.4777  147.3240   14.5287  20231103  13.5  2.0  P/2004 DO29 (Spacewatch-LINEAR)                          MPC 54558
    PK04FE0Y  2027 02 22.4486  4.016760  0.191817  254.1272  327.2733    2.1619  20231103  12.5  2.0  P/2004 FY140 (LINEAR)                                    MPEC 2022-YN2
    PK04R030  2021 09 18.6454  3.544463  0.254685   37.6090  305.1350   12.7895  20231103  14.5  4.0  P/2004 R3 (LINEAR-NEAT)                                  MPC 53304
    PK04V050  2027 08 10.2641  4.433423  0.446241   87.4591   47.7392   19.3479  20231103   8.0  4.0  P/2004 V5 (LINEAR-Hill)                                  MPC 75705
    PK04V05b  2027 08 11.2255  4.433453  0.446266   87.4620   47.7396   19.3480  20231103   8.0  4.0  P/2004 V5-B (LINEAR-Hill)                                MPC 75705
    PK05E010  2023 09 27.8062  4.402756  0.376246  193.8715  335.5280    4.2624  20231103  10.0  4.0  P/2005 E1 (Tubbiolo)                                     MPC 54164
    PK05J010  2025 07 11.9012  1.540314  0.568929  338.9207  268.7981   31.7382  20231103  16.5  4.0  P/2005 J1 (McNaught)                                     MPC 79019
    PK05L010  2021 11 12.6847  3.132566  0.219454  151.5833  137.5045    7.6596  20231103   9.5  4.0  P/2005 L1 (McNaught)                                     MPC 74246
    PK05S020  2029 01 20.2440  6.405789  0.198903  229.5999  161.3640    3.1367  20231103   7.5  4.0  P/2005 S2 (Skiff)                                        MPC 75706
    PK05SL6B  2026 01 14.7776  3.823495  0.465342   83.2186    1.1276   24.1103  20231103  12.0  2.0  P/2005 SB216 (LONEOS)                                    MPC 75706
    PK05T030  2026 08 15.2041  6.255589  0.175550    6.7500   27.6700    6.2264  20231103   9.0  4.0  P/2005 T3 (Read)                                         MPC 73461
    PK05T040  2034 05 29.5242  0.655146  0.929976   41.8714   25.9482   60.2880  20231103  15.0  4.0  P/2005 T4 (SWAN)                                         MPC 73461
    PK05T050  2025 06 14.5841  3.254386  0.552474  304.7100   57.0686   21.3835  20231103  11.0  4.0  P/2005 T5 (Broughton)                                    MPC 75706
    PK06H30R  2028 10  8.8249  1.221208  0.843532  117.3948  309.8435   31.9045  20231103  11.0  4.0  P/2006 HR30 (Siding Spring)                              MPC 75707
    PK07C020  2026 03 22.0884  3.693431  0.472856  180.1539  275.2661    8.6124  20231103  10.0  4.0  P/2007 C2 (Catalina)                                     MPC 75707
    CK07D010  2007 06  8.7356  8.760048  0.992334  339.7023  171.1860   41.5036  20231103   3.5  4.0  C/2007 D1 (LINEAR)                                       MPC 84315
    PK07K020  2026 12 27.9127  2.303887  0.684007  347.3095  188.5900    7.6250  20231103  14.0  4.0  P/2007 K2 (Gibbs)                                        MPC 82314
    PK07Q020  2020 11 26.6342  1.870115  0.669610  162.8712  172.1902   10.2008  20231103  16.0  4.0  P/2007 Q2 (Gilmore)                                      MPC 60925
    PK07S010  2022 10  6.7192  2.524942  0.338509  245.2043  141.3315    5.9650  20231103  13.0  4.0  P/2007 S1 (Zhao)                                         MPC 73462
    PK07T020  2023 11 17.6170  0.652510  0.785656  359.6709    3.3896    9.7508  20231103  18.5  4.0  P/2007 T2 (Kowalski)                                     MPC 61994
    PK08O030  2031 12 20.5563  2.490907  0.696649  341.1688   47.6081   32.3295  20231103  13.0  4.0  P/2008 O3 (Boattini)                                     MPC 64114
    PK08Y030  2031 10 10.0970  4.451252  0.446723  238.0493  262.8294   38.7781  20231103   8.5  4.0  P/2008 Y3 (McNaught)                                     MPC 75710
    PK09B010  2026 06 30.3090  2.451230  0.636005  128.9213  297.1046   22.2495  20231103  13.0  4.0  P/2009 B1 (Boattini)                                     MPC 75710
    CK09G010  2009 04 15.0858  1.153662  0.997517  175.5282  120.6888    8.5282  20231103   9.0  4.0  C/2009 G1 (STEREO)                                       MPC 66466
    PK09O030  2031 01 23.2555  2.429202  0.687248  154.4815  183.7093   16.2779  20231103  12.5  4.0  P/2009 O3 (Hill)                                         MPC 75710
    PK09Q050  2029 12 16.6305  2.897507  0.609847  209.1431  160.2832   40.9847  20231103  10.0  4.0  P/2009 Q5 (McNaught)                                     MPC 68902
    PK09T020  2031 06 10.3263  1.796428  0.767130  215.9027  216.3608   27.6168  20231103  14.0  4.0  P/2009 T2 (La Sagra)                                     MPC112389
    PK09W51X  2026 04 15.3871  0.803587  0.739325  118.2536   31.5568    9.5923  20231103  19.0  2.0  P/2009 WX51 (Catalina)                                   MPC105235
    PK09Y020  2026 12  1.7057  2.374590  0.637279  172.1477  262.0793   29.9696  20231103  13.0  4.0  P/2009 Y2 (Kowalski)                                     MPC 74247
    PK10A030  2025 03 11.5394  1.620573  0.734014   42.2377   63.6502   14.8186  20231103  14.0  4.0  P/2010 A3 (Hill)                                         MPC 75711
    PK10C010  2028 09 28.8806  5.250104  0.262007    3.2136  141.6598    9.1192  20231103   9.5  4.0  P/2010 C1 (Scotti)                                       MPC 75008
    PK10D020  2027 07  9.1371  3.685549  0.451708  119.9326  319.8733   57.1137  20231103  16.0  4.0  P/2010 D2 (WISE)                                         MPC 75008
    PK10E020  2035 08 10.0005  2.421885  0.719673    8.2744  177.7947   15.3928  20231103  14.0  4.0  P/2010 E2 (Jarnac)                                       MPC 75009
    PK10H020  2025 03  9.6922  3.076452  0.197118  128.0407   64.1873   14.2795  20231103   6.0  4.0  P/2010 H2 (Vales)                                        MPC 72851
    PK10H030  2026 05 25.1123  0.044091  0.985478   26.0760   77.1656   23.1345  20231103  20.0  2.0  P/2010 H3 (SOHO)                                         MPC 70361
